{
  "type": "FeatureCollection",
  "features": [
    {
      "type": "Feature",
      "properties": {
        "norad_id": 65731,
        "name": "1998-067XK",
        "group": "stations",
        "lat": -30.243739802086086,
        "lon": 40.085213891902704,
        "alt_km": 363.8070302150445,
        "timestamp": "2025-12-26T10:30:49.009765+00:00",
        "meta_object_name": "1998-067XK",
        "meta_object_id": "1998-067XK",
        "meta_epoch": "2025-12-26T04:33:59.550912",
        "meta_mean_motion": 15.68357422,
        "meta_eccentricity": 0.0005032,
        "meta_inclination": 51.6285,
        "meta_ra_of_asc_node": 68.8624,
        "meta_arg_of_pericenter": 329.4529,
        "meta_mean_anomaly": 30.6174,
        "meta_ephemeris_type": 0,
        "meta_classification_type": "U",
        "meta_norad_cat_id": 65731,
        "meta_element_set_no": 999,
        "meta_rev_at_epoch": 1525,
        "meta_bstar": 0.00086718,
        "meta_mean_motion_dot": 0.001002,
        "meta_mean_motion_ddot": 0,
        "tle_line1": "1 65731U 98067XK  25360.19027258  .00100200  00000+0  86718-3 0  9997",
        "tle_line2": "2 65731  51.6285  68.8624 0005032 329.4529  30.6174 15.68357422 15256"
      },
      "geometry": {
        "type": "Point",
        "coordinates": [
          40.085213891902704,
          -30.243739802086086
        ]
      }
    },
    {
      "type": "Feature",
      "properties": {
        "norad_id": 65732,
        "name": "RSP-03",
        "group": "stations",
        "lat": 51.144537357640374,
        "lon": 166.92928629852565,
        "alt_km": 347.48982514507134,
        "timestamp": "2025-12-26T10:30:49.009775+00:00",
        "meta_object_name": "RSP-03",
        "meta_object_id": "1998-067XL",
        "meta_epoch": "2025-12-26T02:28:39.715680",
        "meta_mean_motion": 15.72119608,
        "meta_eccentricity": 0.0006061,
        "meta_inclination": 51.6259,
        "meta_ra_of_asc_node": 68.2655,
        "meta_arg_of_pericenter": 336.3892,
        "meta_mean_anomaly": 23.6827,
        "meta_ephemeris_type": 0,
        "meta_classification_type": "U",
        "meta_norad_cat_id": 65732,
        "meta_element_set_no": 999,
        "meta_rev_at_epoch": 1526,
        "meta_bstar": 0.0010365,
        "meta_mean_motion_dot": 0.00141034,
        "meta_mean_motion_ddot": 0,
        "tle_line1": "1 65732U 98067XL  25360.10323745  .00141034  00000+0  10365-2 0  9993",
        "tle_line2": "2 65732  51.6259  68.2655 0006061 336.3892  23.6827 15.72119608 15264"
      },
      "geometry": {
        "type": "Point",
        "coordinates": [
          166.92928629852565,
          51.144537357640374
        ]
      }
    },
    {
      "type": "Feature",
      "properties": {
        "norad_id": 65733,
        "name": "GHS-01",
        "group": "stations",
        "lat": 19.201273892290878,
        "lon": 80.45907834679683,
        "alt_km": 319.1892431306542,
        "timestamp": "2025-12-26T10:30:49.009788+00:00",
        "meta_object_name": "GHS-01",
        "meta_object_id": "1998-067XM",
        "meta_epoch": "2025-12-25T11:39:15.872832",
        "meta_mean_motion": 15.80737686,
        "meta_eccentricity": 0.0009282,
        "meta_inclination": 51.6282,
        "meta_ra_of_asc_node": 69.3856,
        "meta_arg_of_pericenter": 357.4612,
        "meta_mean_anomaly": 2.6342,
        "meta_ephemeris_type": 0,
        "meta_classification_type": "U",
        "meta_norad_cat_id": 65733,
        "meta_element_set_no": 999,
        "meta_rev_at_epoch": 1519,
        "meta_bstar": 0.0014102,
        "meta_mean_motion_dot": 0.0028642,
        "meta_mean_motion_ddot": 0,
        "tle_line1": "1 65733U 98067XM  25359.48560038  .00286420  00000+0  14102-2 0  9993",
        "tle_line2": "2 65733  51.6282  69.3856 0009282 357.4612   2.6342 15.80737686 15190"
      },
      "geometry": {
        "type": "Point",
        "coordinates": [
          80.45907834679683,
          19.201273892290878
        ]
      }
    },
    {
      "type": "Feature",
      "properties": {
        "norad_id": 65941,
        "name": "YOTSUBA-KULOVER",
        "group": "stations",
        "lat": 46.90178620509367,
        "lon": -166.82788816693045,
        "alt_km": 378.00004897433155,
        "timestamp": "2025-12-26T10:30:49.009799+00:00",
        "meta_object_name": "YOTSUBA-KULOVER",
        "meta_object_id": "1998-067XN",
        "meta_epoch": "2025-12-25T07:55:23.883456",
        "meta_mean_motion": 15.61141246,
        "meta_eccentricity": 0.00024963,
        "meta_inclination": 51.6289,
        "meta_ra_of_asc_node": 76.6197,
        "meta_arg_of_pericenter": 359.01,
        "meta_mean_anomaly": 1.0889,
        "meta_ephemeris_type": 0,
        "meta_classification_type": "U",
        "meta_norad_cat_id": 65941,
        "meta_element_set_no": 999,
        "meta_rev_at_epoch": 1182,
        "meta_bstar": 0.00081019067,
        "meta_mean_motion_dot": 0.00069861,
        "meta_mean_motion_ddot": 0,
        "tle_line1": "1 65941U 98067XN  25359.33013754  .00069861  00000+0  81019-3 0  9996",
        "tle_line2": "2 65941  51.6289  76.6197 0002496 359.0100   1.0889 15.61141246 11822"
      },
      "geometry": {
        "type": "Point",
        "coordinates": [
          -166.82788816693045,
          46.90178620509367
        ]
      }
    },
    {
      "type": "Feature",
      "properties": {
        "norad_id": 65942,
        "name": "BOTAN",
        "group": "stations",
        "lat": -51.406311264386645,
        "lon": -13.185686734538802,
        "alt_km": 374.71248358340927,
        "timestamp": "2025-12-26T10:30:49.009809+00:00",
        "meta_object_name": "BOTAN",
        "meta_object_id": "1998-067XP",
        "meta_epoch": "2025-12-25T11:54:02.710944",
        "meta_mean_motion": 15.65573117,
        "meta_eccentricity": 0.00034448,
        "meta_inclination": 51.6278,
        "meta_ra_of_asc_node": 74.724,
        "meta_arg_of_pericenter": 339.5705,
        "meta_mean_anomaly": 20.5152,
        "meta_ephemeris_type": 0,
        "meta_classification_type": "U",
        "meta_norad_cat_id": 65942,
        "meta_element_set_no": 999,
        "meta_rev_at_epoch": 1186,
        "meta_bstar": 0.0011099214,
        "meta_mean_motion_dot": 0.0011485,
        "meta_mean_motion_ddot": 0,
        "tle_line1": "1 65942U 98067XP  25359.49586471  .00114850  00000+0  11099-2 0  9994",
        "tle_line2": "2 65942  51.6278  74.7240 0003444 339.5705  20.5152 15.65573117 11860"
      },
      "geometry": {
        "type": "Point",
        "coordinates": [
          -13.185686734538802,
          -51.406311264386645
        ]
      }
    },
    {
      "type": "Feature",
      "properties": {
        "norad_id": 65943,
        "name": "E-KAGAKU-1",
        "group": "stations",
        "lat": 47.103274159946565,
        "lon": -167.4643632536046,
        "alt_km": 378.14418005747484,
        "timestamp": "2025-12-26T10:30:49.009821+00:00",
        "meta_object_name": "E-KAGAKU-1",
        "meta_object_id": "1998-067XQ",
        "meta_epoch": "2025-12-25T10:59:52.984032",
        "meta_mean_motion": 15.61171734,
        "meta_eccentricity": 0.00014574,
        "meta_inclination": 51.631,
        "meta_ra_of_asc_node": 75.9814,
        "meta_arg_of_pericenter": 327.9549,
        "meta_mean_anomaly": 32.1355,
        "meta_ephemeris_type": 0,
        "meta_classification_type": "U",
        "meta_norad_cat_id": 65943,
        "meta_element_set_no": 999,
        "meta_rev_at_epoch": 1184,
        "meta_bstar": 0.00081459816,
        "meta_mean_motion_dot": 0.00070327,
        "meta_mean_motion_ddot": 0,
        "tle_line1": "1 65943U 98067XQ  25359.45825213  .00070327  00000+0  81460-3 0  9991",
        "tle_line2": "2 65943  51.6310  75.9814 0001457 327.9549  32.1355 15.61171734 11844"
      },
      "geometry": {
        "type": "Point",
        "coordinates": [
          -167.4643632536046,
          47.103274159946565
        ]
      }
    },
    {
      "type": "Feature",
      "properties": {
        "norad_id": 66052,
        "name": "HRC MONOBLOCK CAMERA",
        "group": "stations",
        "lat": 7.073261119224236,
        "lon": -112.48507700777907,
        "alt_km": 401.4264600624938,
        "timestamp": "2025-12-26T10:30:49.009832+00:00",
        "meta_object_name": "HRC MONOBLOCK CAMERA",
        "meta_object_id": "1998-067XR",
        "meta_epoch": "2025-12-25T15:16:26.141088",
        "meta_mean_motion": 15.55029528,
        "meta_eccentricity": 0.0002034,
        "meta_inclination": 51.6301,
        "meta_ra_of_asc_node": 77.1613,
        "meta_arg_of_pericenter": 247.8155,
        "meta_mean_anomaly": 112.262,
        "meta_ephemeris_type": 0,
        "meta_classification_type": "U",
        "meta_norad_cat_id": 66052,
        "meta_element_set_no": 999,
        "meta_rev_at_epoch": 1084,
        "meta_bstar": 0.00054388,
        "meta_mean_motion_dot": 0.000369,
        "meta_mean_motion_ddot": 0,
        "tle_line1": "1 66052U 98067XR  25359.63641367  .00036900  00000+0  54388-3 0  9997",
        "tle_line2": "2 66052  51.6301  77.1613 0002034 247.8155 112.2620 15.55029528 10842"
      },
      "geometry": {
        "type": "Point",
        "coordinates": [
          -112.48507700777907,
          7.073261119224236
        ]
      }
    }
  ]
}